{
    "satellites": [
        {
            "name": "starlink337",
            "title": "Starlink-337 (G6-82)",
            "tle": [
                "1 67128C 25299AC  25358.11368056 -.01952100  00000+0 -74517-2 0  3588",
                "2 67128  42.9974 246.8948 0001331 257.9425 344.1066 15.88467583    14"
            ],
            "stdMag": 5,
            "noradId": "67128",
            "tleUrl": "http://celestrak.org/NORAD/elements/supplemental/sup-gp.php?FILE=starlink&FORMAT=tle",
            "launchDate": "2025-12-15T05:25:10.000Z",
            "active": true,
            "batch": [
                {
                    "noradId": "67128",
                    "tle": [
                        "1 67128C 25299AC  25358.11368056 -.01952100  00000+0 -74517-2 0  3588",
                        "2 67128  42.9974 246.8948 0001331 257.9425 344.1066 15.88467583    14"
                    ]
                },
                {
                    "noradId": "67130",
                    "tle": [
                        "1 67130C 25299AE  25358.10743056 -.01955400  00000+0 -74893-2 0  3580",
                        "2 67130  42.9974 246.9222 0001225 262.9330 308.4523 15.88402639    18"
                    ]
                },
                {
                    "noradId": "67129",
                    "tle": [
                        "1 67129C 25299AD  25358.11159722 -.01954700  00000+0 -74495-2 0  3580",
                        "2 67129  42.9976 246.9149 0001275 259.8574 327.4293 15.88502952    10"
                    ]
                },
                {
                    "noradId": "67127",
                    "tle": [
                        "1 67127C 25299AB  25358.11506944 -.01950100  00000+0 -74360-2 0  3581",
                        "2 67127  42.9976 246.8986 0001372 257.5927 347.6087 15.88487692    19"
                    ]
                },
                {
                    "noradId": "67126",
                    "tle": [
                        "1 67126C 25299AA  25358.11368056 -.01953500  00000+0 -74497-2 0  3588",
                        "2 67126  42.9977 246.9114 0001310 258.0972 337.4855 15.88489343    16"
                    ]
                },
                {
                    "noradId": "67125",
                    "tle": [
                        "1 67125C 25299Z   25358.10881944 -.01956300  00000+0 -74543-2 0  3585",
                        "2 67125  42.9976 246.9460 0001163 259.3471 306.5556 15.88509120    13"
                    ]
                },
                {
                    "noradId": "67124",
                    "tle": [
                        "1 67124C 25299Y   25358.11090278 -.01955200  00000+0 -74574-2 0  3589",
                        "2 67124  42.9980 246.9374 0001292 257.5858 318.7211 15.88488103    13"
                    ]
                },
                {
                    "noradId": "67123",
                    "tle": [
                        "1 67123C 25299X   25358.10881944 -.01953900  00000+0 -74589-2 0  3586",
                        "2 67123  42.9979 246.9625 0001153 261.8457 297.7155 15.88468118    15"
                    ]
                },
                {
                    "noradId": "67122",
                    "tle": [
                        "1 67122C 25299W   25358.11437500 -.01953900  00000+0 -74607-2 0  3582",
                        "2 67122  42.9977 246.9199 0001289 259.5865 334.9749 15.88463962    10"
                    ]
                },
                {
                    "noradId": "67121",
                    "tle": [
                        "1 67121C 25299V   25358.11229167 -.01955800  00000+0 -74694-2 0  3586",
                        "2 67121  42.9975 246.9362 0001283 259.6099 321.5747 15.88461153    13"
                    ]
                },
                {
                    "noradId": "67119",
                    "tle": [
                        "1 67119C 25299T   25358.11576389 -.01951200  00000+0 -74611-2 0  3583",
                        "2 67119  42.9974 246.9232 0001287 258.9185 338.7235 15.88431813    19"
                    ]
                },
                {
                    "noradId": "67120",
                    "tle": [
                        "1 67120C 25299U   25358.10881944 -.01954100  00000+0 -74695-2 0  3584",
                        "2 67120  42.9977 246.9696 0001183 262.7212 293.9314 15.88441576    14"
                    ]
                },
                {
                    "noradId": "67118",
                    "tle": [
                        "1 67118C 25299S   25358.11298611 -.01952700  00000+0 -74752-2 0  3583",
                        "2 67118  42.9977 246.9474 0001342 259.9749 319.0917 15.88410388    11"
                    ]
                },
                {
                    "noradId": "67117",
                    "tle": [
                        "1 67117C 25299R   25358.11715278 -.01954700  00000+0 -74908-2 0  3580",
                        "2 67117  42.9978 246.9260 0001302 258.9065 342.2893 15.88390932    13"
                    ]
                },
                {
                    "noradId": "67114",
                    "tle": [
                        "1 67114C 25299N   25358.10881944 -.01954800  00000+0 -74863-2 0  3581",
                        "2 67114  42.9975 246.9904 0001177 262.5310 285.8565 15.88404371    17"
                    ]
                },
                {
                    "noradId": "67116",
                    "tle": [
                        "1 67116C 25299Q   25358.11368056 -.01954200  00000+0 -74864-2 0  3583",
                        "2 67116  42.9976 246.9517 0001297 258.3802 321.2617 15.88396978    18"
                    ]
                },
                {
                    "noradId": "67115",
                    "tle": [
                        "1 67115C 25299P   25358.11298611 -.01954600  00000+0 -74873-2 0  3585",
                        "2 67115  42.9976 246.9606 0001254 257.4844 316.3109 15.88398943    10"
                    ]
                },
                {
                    "noradId": "67113",
                    "tle": [
                        "1 67113C 25299M   25358.11645833 -.01955600  00000+0 -75011-2 0  3581",
                        "2 67113  42.9975 246.9475 0001292 257.2448 333.0628 15.88372757    18"
                    ]
                },
                {
                    "noradId": "67112",
                    "tle": [
                        "1 67112C 25299L   25358.11368056 -.01955300  00000+0 -75000-2 0  3584",
                        "2 67112  42.9976 246.9687 0001281 261.0174 311.8576 15.88372102    10"
                    ]
                },
                {
                    "noradId": "67111",
                    "tle": [
                        "1 67111C 25299K   25358.10812500 -.01953400  00000+0 -74924-2 0  3583",
                        "2 67111  42.9977 247.0110 0001217 263.5905 274.3501 15.88371332    16"
                    ]
                },
                {
                    "noradId": "67108",
                    "tle": [
                        "1 67108C 25299G   25358.10881944 -.01954000  00000+0 -74973-2 0  3588",
                        "2 67108  42.9975 247.0158 0001239 263.4245 274.8252 15.88364750    16"
                    ]
                },
                {
                    "noradId": "67110",
                    "tle": [
                        "1 67110C 25299J   25358.11506944 -.01955800  00000+0 -75091-2 0  3587",
                        "2 67110  42.9975 246.9635 0001285 258.6655 320.7373 15.88353240    16"
                    ]
                },
                {
                    "noradId": "67107",
                    "tle": [
                        "1 67107C 25299F   25358.11576389 -.01955700  00000+0 -75188-2 0  3589",
                        "2 67107  42.9974 246.9815 0001263 259.7480 314.8767 15.88326366    15"
                    ]
                },
                {
                    "noradId": "67109",
                    "tle": [
                        "1 67109C 25299H   25358.11090278 -.01953700  00000+0 -74983-2 0  3589",
                        "2 67109  42.9975 246.9981 0001216 261.4162 290.5980 15.88358986    17"
                    ]
                },
                {
                    "noradId": "67106",
                    "tle": [
                        "1 67106C 25299E   25358.11159722 -.01953400  00000+0 -75018-2 0  3583",
                        "2 67106  42.9974 247.0029 0001190 261.9394 290.5302 15.88346370    13"
                    ]
                },
                {
                    "noradId": "67105",
                    "tle": [
                        "1 67105C 25299D   25358.11437500 -.01954200  00000+0 -75154-2 0  3585",
                        "2 67105  42.9972 246.9937 0001227 260.0096 305.1541 15.88318467    10"
                    ]
                },
                {
                    "noradId": "67104",
                    "tle": [
                        "1 67104C 25299C   25358.10881944 -.01958100  00000+0 -75305-2 0  3589",
                        "2 67104  42.9973 247.0309 0001190 266.0809 266.1264 15.88322007    15"
                    ]
                },
                {
                    "noradId": "67103",
                    "tle": [
                        "1 67103C 25299B   25358.11298611 -.01955700  00000+0 -75323-2 0  3585",
                        "2 67103  42.9973 247.0088 0001190 263.8088 290.8302 15.88289509    18"
                    ]
                },
                {
                    "noradId": "67102",
                    "tle": [
                        "1 67102C 25299A   25358.11437500 -.01955500  00000+0 -75407-2 0  3587",
                        "2 67102  42.9973 247.0032 0001169 261.0346 300.3265 15.88263825    17"
                    ]
                }
            ]
        }
    ],
    "config": {}
}